STARLINK-1802           
1 46702U 20073AJ  26068.64319803  .00001996  00000+0  79571-4 0  9994
2 46702  53.1596 217.2753 0001195  90.3398 269.7740 15.30173346297472
EXO-0                   
1 59175U 23174DK  26068.71046781  .00011582  00000+0  36716-3 0  9992
2 59175  97.3864 148.9039 0009878 157.1125 203.0559 15.32821991129797
